[{"OBJECT_NAME":"SRMSAT","OBJECT_ID":"2011-058D","EPOCH":"2026-03-09T21:52:00.886368","MEAN_MOTION":14.11547804,"ECCENTRICITY":0.00117783,"INCLINATION":19.9724,"RA_OF_ASC_NODE":300.3652,"ARG_OF_PERICENTER":191.4566,"MEAN_ANOMALY":283.6478,"EPHEMERIS_TYPE":0,"CLASSIFICATION_TYPE":"U","NORAD_CAT_ID":37841,"ELEMENT_SET_NO":999,"REV_AT_EPOCH":74377,"BSTAR":0.00012150267,"MEAN_MOTION_DOT":4.89e-6,"MEAN_MOTION_DDOT":0},{"OBJECT_NAME":"FENGYUN 1C DEB","OBJECT_ID":"1999-025BLV","EPOCH":"2026-03-09T23:35:04.623360","MEAN_MOTION":14.10000637,"ECCENTRICITY":0.00488241,"INCLINATION":98.7652,"RA_OF_ASC_NODE":66.6278,"ARG_OF_PERICENTER":313.1735,"MEAN_ANOMALY":70.3782,"EPHEMERIS_TYPE":0,"CLASSIFICATION_TYPE":"U","NORAD_CAT_ID":31239,"ELEMENT_SET_NO":999,"REV_AT_EPOCH":97241,"BSTAR":0.00050148021,"MEAN_MOTION_DOT":8.51e-6,"MEAN_MOTION_DDOT":0}]
